FACSAT-2                
1 56205U 23054AD  24024.42258902  .00033745  00000+0  11546-2 0  9996
2 56205  97.3860 282.3787 0011591 314.4676  45.5616 15.30109654 43949
