{"type": "Feature", "geometry": {"type": "Point", "coordinates": ["-67.12", "4.15"]}, "properties": {"temperature": "100", "pressure": "1.012", "localTime": "Wed Jan 24 2024 14:19:44 GMT-0500 (hora est\u00e1ndar de Colombia)", "julianTime": "1706123984", "utcTime": "2:19:52 PM", "altitude": "487.42", "elevation": "-31.3", "TLE": {"Norad_Id": 56205, "International_Classification": "Unclassified", "International_Designation": "23054AD", "Epoch_Time_(ISO)": "2024-01-24T10:08:32Z", "First_Derivative_Mean_Motion": 0.00033745000000000004, "Second_Derivative_Mean_Motion": 0.0, "Inclination": 97.386, "Right_Ascension_of_the_Ascending_Node": 282.3787, "Eccentricity": 0.0011591, "Argument_of_Perigee": 314.4676, "Mean_Anomaly": 45.5616, "Mean_Motion": 15.30109654, "Revolution_Number_at_Epoch": 4394}}}